TRANSIT 16 [?]          
1 02807U 67048A   22357.65548580  .00000119  00000+0  16967-3 0  9994
2 02807  89.6590  29.9712 0020693  19.2829  96.0444 13.50347283736309
TRANSIT 17 [?]          
1 02965U 67092A   22357.76122326  .00000100  00000+0  13125-3 0  9999
2 02965  89.2343 108.7846 0049028 144.7938  20.2240 13.53058603724238
TRANSIT 18 [?]          
1 03133U 68012A   22358.04247515  .00000148  00000+0  20984-3 0  9993
2 03133  90.0118 271.6926 0076765  72.4414 299.3263 13.51185733699204
NNSS 19 [?]             
1 04507U 70067A   22358.40643431  .00000122  00000+0  15865-3 0  9993
2 04507  89.9339 237.9516 0171699 193.6017 166.0478 13.50865965576190
NNSS O-20 [?]           
1 06909U 73081A   22358.20792486  .00000235  00000+0  22992-3 0  9997
2 06909  89.8234 273.8436 0158253  88.5720 273.3565 13.70730778655298
TRANSAT [?]             
1 10457U 77106A   22357.80565052  .00000076  00000+0  10476-3 0  9991
2 10457  89.6753 116.3739 0026829  82.5165  71.9004 13.48701350221188
NOVA I [?]              
1 12458U 81044A   22357.58364236  .00000054  00000+0  10645-3 0  9990
2 12458  89.8847 105.5732 0013869 210.1658 161.5466 13.23084917  8363
NOVA 3 [?]              
1 15362U 84110A   22357.66840909  .00000072  00000+0  15088-3 0  9995
2 15362  90.1052  68.7888 0033638  81.8649  29.4698 13.22850351843520
OSCAR 30 [?]            
1 15935U 85066A   22358.50311925  .00000138  00000+0  23808-3 0  9999
2 15935  90.1821  81.2262 0167030 262.2148 107.4091 13.35781756819847
OSCAR 24 [?]            
1 15936U 85066B   22358.44838936  .00000109  00000+0  18604-3 0  9995
2 15936  90.1789  73.1388 0167520 268.2469 100.9048 13.35640826821908
POLAR BEAR [?]          
1 17070U 86088A   22357.64408387  .00000115  00000+0  10781-3 0  9990
2 17070  89.5742 229.0286 0039963 150.6409 262.8995 13.74898823810672
OSCAR 27 [?]            
1 18361U 87080A   22357.60984244  .00000101  00000+0  15174-3 0  9990
2 18361  90.3369  40.5558 0106293  92.1012 269.2312 13.44591893729734
OSCAR 29 [?]            
1 18362U 87080B   22357.65051616  .00000092  00000+0  13787-3 0  9991
2 18362  90.3382  40.9039 0107879 112.2737   0.1532 13.44178332729316
OSCAR 23 [?]            
1 19070U 88033A   22357.51761632  .00000079  00000+0  14605-3 0  9993
2 19070  90.3237 342.7967 0188724 318.5143 155.1468 13.27544011678533
OSCAR 32 [?]            
1 19071U 88033B   22358.47764961  .00000053  00000+0  95224-4 0  9997
2 19071  90.3239 342.9164 0186719 303.5373 231.8424 13.27723194679185
NOVA 11 [?]             
1 19223U 88052A   22358.47686436  .00000086  00000+0  18351-3 0  9998
2 19223  89.9789  80.4017 0032312 120.7146 250.6361 13.22763049666403
OSCAR 25 [?]            
1 19419U 88074A   22357.62306617  .00000111  00000+0  17388-3 0  9993
2 19419  90.0054  18.0195 0098233 101.3957  16.0023 13.42320954680817
OSCAR 31 [?]            
1 19420U 88074B   22357.71387346  .00000087  00000+0  13241-3 0  9999
2 19420  90.0066  18.2160 0096463  95.4032  39.0001 13.42329400680935
